{"type": "FeatureCollection", "features": [ {"type": "Feature", "properties": {"norad_id": 37216, "name": "COSMO-SKYMED 4", "group": "resource", "lat": 35.36029639760751, "lon": 166.52152205697183, "alt_km": 619.4514354688263, "timestamp": "2025-12-16T21:38:56.826510+00:00", "meta": {"OBJECT_NAME": "COSMO-SKYMED 4", "OBJECT_ID": "2010-060A", "EPOCH": "2025-12-16T08:31:34.770720", "MEAN_MOTION": 14.82151609, "ECCENTRICITY": 0.00014149, "INCLINATION": 97.8805, "RA_OF_ASC_NODE": 171.6238, "ARG_OF_PERICENTER": 80.1551, "MEAN_ANOMALY": 279.9822, "EPHEMERIS_TYPE": 0, "CLASSIFICATION_TYPE": "U", "NORAD_CAT_ID": 37216, "ELEMENT_SET_NO": 999, "REV_AT_EPOCH": 81748, "BSTAR": 0.00012822008, "MEAN_MOTION_DOT": 9.69e-06, "MEAN_MOTION_DDOT": 0}, "tle": {"line1": "1 37216U 10060A   25350.35526355  .00000969  00000+0  12822-3 0  9996", "line2": "2 37216  97.8805 171.6238 0001414  80.1551 279.9822 14.82151609817480"}}, "geometry": {"type": "Point", "coordinates": [166.52152205697183, 35.36029639760751]}}, {"type": "Feature", "properties": {"norad_id": 37387, "name": "RESOURCESAT-2", "group": "resource", "lat": 4.786777007200723, "lon": -124.82273887313252, "alt_km": 825.8511254736968, "timestamp": "2025-12-16T21:38:56.826521+00:00", "meta": {"OBJECT_NAME": "RESOURCESAT-2", "OBJECT_ID": "2011-015A", "EPOCH": "2025-12-16T07:18:54.738144", "MEAN_MOTION": 14.21598744, "ECCENTRICITY": 0.00062715, "INCLINATION": 98.7875, "RA_OF_ASC_NODE": 53.8406, "ARG_OF_PERICENTER": 33.1749, "MEAN_ANOMALY": 326.982, "EPHEMERIS_TYPE": 0, "CLASSIFICATION_TYPE": "U", "NORAD_CAT_ID": 37387, "ELEMENT_SET_NO": 999, "REV_AT_EPOCH": 76019, "BSTAR": 8.4173172e-05, "MEAN_MOTION_DOT": 1.4e-06, "MEAN_MOTION_DDOT": 0}, "tle": {"line1": "1 37387U 11015A   25350.30480021  .00000140  00000+0  84173-4 0  9990", "line2": "2 37387  98.7875  53.8406 0006271  33.1749 326.9820 14.21598744760191"}}, "geometry": {"type": "Point", "coordinates": [-124.82273887313252, 4.786777007200723]}}, {"type": "Feature", "properties": {"norad_id": 37781, "name": "HAIYANG-2A", "group": "resource", "lat": -55.82291177722022, "lon": 5.796154100922089, "alt_km": 975.8417073146002, "timestamp": "2025-12-16T21:38:56.826531+00:00", "meta": {"OBJECT_NAME": "HAIYANG-2A", "OBJECT_ID": "2011-043A", "EPOCH": "2025-12-16T07:59:34.094400", "MEAN_MOTION": 13.78836633, "ECCENTRICITY": 0.00016764, "INCLINATION": 99.338, "RA_OF_ASC_NODE": 351.2125, "ARG_OF_PERICENTER": 78.0158, "MEAN_ANOMALY": 282.1182, "EPHEMERIS_TYPE": 0, "CLASSIFICATION_TYPE": "U", "NORAD_CAT_ID": 37781, "ELEMENT_SET_NO": 999, "REV_AT_EPOCH": 72148, "BSTAR": 0.00030664185, "MEAN_MOTION_DOT": 2.68e-06, "MEAN_MOTION_DDOT": 0}, "tle": {"line1": "1 37781U 11043A   25350.33303350  .00000268  00000+0  30664-3 0  9997", "line2": "2 37781  99.3380 351.2125 0001676  78.0158 282.1182 13.78836633721482"}}, "geometry": {"type": "Point", "coordinates": [5.796154100922089, -55.82291177722022]}}, {"type": "Feature", "properties": {"norad_id": 37791, "name": "RASAT", "group": "resource", "lat": -47.366020489002466, "lon": 88.95687885528805, "alt_km": 677.2589315246541, "timestamp": "2025-12-16T21:38:56.826542+00:00", "meta": {"OBJECT_NAME": "RASAT", "OBJECT_ID": "2011-044D", "EPOCH": "2025-12-16T09:06:56.159424", "MEAN_MOTION": 14.67916237, "ECCENTRICITY": 0.00217544, "INCLINATION": 98.0646, "RA_OF_ASC_NODE": 79.5833, "ARG_OF_PERICENTER": 54.0767, "MEAN_ANOMALY": 20.1943, "EPHEMERIS_TYPE": 0, "CLASSIFICATION_TYPE": "U", "NORAD_CAT_ID": 37791, "ELEMENT_SET_NO": 999, "REV_AT_EPOCH": 76636, "BSTAR": 0.0001384121, "MEAN_MOTION_DOT": 7.45e-06, "MEAN_MOTION_DDOT": 0}, "tle": {"line1": "1 37791U 11044D   25350.37981666  .00000745  00000+0  13841-3 0  9993", "line2": "2 37791  98.0646  79.5833 0021754  54.0767  20.1943 14.67916237766368"}}, "geometry": {"type": "Point", "coordinates": [88.95687885528805, -47.366020489002466]}}, {"type": "Feature", "properties": {"norad_id": 37841, "name": "SRMSAT", "group": "resource", "lat": 10.064729008336563, "lon": 112.01763414641147, "alt_km": 843.1689261515003, "timestamp": "2025-12-16T21:38:56.826553+00:00", "meta": {"OBJECT_NAME": "SRMSAT", "OBJECT_ID": "2011-058D", "EPOCH": "2025-12-16T08:07:34.640832", "MEAN_MOTION": 14.11512684, "ECCENTRICITY": 0.00118488, "INCLINATION": 19.9718, "RA_OF_ASC_NODE": 86.1692, "ARG_OF_PERICENTER": 353.1268, "MEAN_ANOMALY": 48.2887, "EPHEMERIS_TYPE": 0, "CLASSIFICATION_TYPE": "U", "NORAD_CAT_ID": 37841, "ELEMENT_SET_NO": 999, "REV_AT_EPOCH": 73195, "BSTAR": 8.4504965e-05, "MEAN_MOTION_DOT": 4.2e-06, "MEAN_MOTION_DDOT": 0}, "tle": {"line1": "1 37841U 11058D   25350.33859538  .00000420  00000+0  84505-4 0  9998", "line2": "2 37841  19.9718  86.1692 0011848 353.1268  48.2887 14.11512684731957"}}, "geometry": {"type": "Point", "coordinates": [112.01763414641147, 10.064729008336563]}}, {"type": "Feature", "properties": {"norad_id": 38012, "name": "PLEIADES 1A", "group": "resource", "lat": -32.13860555846496, "lon": 68.79216331223199, "alt_km": 704.0946202499927, "timestamp": "2025-12-16T21:38:56.826563+00:00", "meta": {"OBJECT_NAME": "PLEIADES 1A", "OBJECT_ID": "2011-076F", "EPOCH": "2025-12-16T08:56:22.156224", "MEAN_MOTION": 14.58565041, "ECCENTRICITY": 0.00012076, "INCLINATION": 98.1821, "RA_OF_ASC_NODE": 63.0848, "ARG_OF_PERICENTER": 72.7332, "MEAN_ANOMALY": 355.8515, "EPHEMERIS_TYPE": 0, "CLASSIFICATION_TYPE": "U", "NORAD_CAT_ID": 38012, "ELEMENT_SET_NO": 999, "REV_AT_EPOCH": 74534, "BSTAR": 6.8659385e-05, "MEAN_MOTION_DOT": 2.74e-06, "MEAN_MOTION_DDOT": 0}, "tle": {"line1": "1 38012U 11076F   25350.37247866  .00000274  00000+0  68659-4 0  9997", "line2": "2 38012  98.1821  63.0848 0001207  72.7332 355.8515 14.58565041745342"}}, "geometry": {"type": "Point", "coordinates": [68.79216331223199, -32.13860555846496]}}, {"type": "Feature", "properties": {"norad_id": 38038, "name": "ZIYUAN 1-02C (ZY 1-02C)", "group": "resource", "lat": -70.189186510172, "lon": 81.15867439431251, "alt_km": 777.2642380164434, "timestamp": "2025-12-16T21:38:56.826573+00:00", "meta": {"OBJECT_NAME": "ZIYUAN 1-02C (ZY 1-02C)", "OBJECT_ID": "2011-079A", "EPOCH": "2025-12-16T08:55:42.055392", "MEAN_MOTION": 14.38016969, "ECCENTRICITY": 0.00073213, "INCLINATION": 98.4332, "RA_OF_ASC_NODE": 56.3187, "ARG_OF_PERICENTER": 128.6873, "MEAN_ANOMALY": 296.9968, "EPHEMERIS_TYPE": 0, "CLASSIFICATION_TYPE": "U", "NORAD_CAT_ID": 38038, "ELEMENT_SET_NO": 999, "REV_AT_EPOCH": 73293, "BSTAR": 0.00018322283, "MEAN_MOTION_DOT": 5.11e-06, "MEAN_MOTION_DDOT": 0}, "tle": {"line1": "1 38038U 11079A   25350.37201453  .00000511  00000+0  18322-3 0  9995", "line2": "2 38038  98.4332  56.3187 0007321 128.6873 296.9968 14.38016969732931"}}, "geometry": {"type": "Point", "coordinates": [81.15867439431251, -70.189186510172]}}, {"type": "Feature", "properties": {"norad_id": 38046, "name": "ZIYUAN 3-1 (ZY 3-1)", "group": "resource", "lat": -60.617788791895094, "lon": -135.50992689943254, "alt_km": 368.4579892289976, "timestamp": "2025-12-16T21:38:56.826584+00:00", "meta": {"OBJECT_NAME": "ZIYUAN 3-1 (ZY 3-1)", "OBJECT_ID": "2012-001A", "EPOCH": "2025-12-16T08:22:45.166368", "MEAN_MOTION": 15.69108347, "ECCENTRICITY": 0.00015402, "INCLINATION": 97.1754, "RA_OF_ASC_NODE": 56.853, "ARG_OF_PERICENTER": 334.457, "MEAN_ANOMALY": 25.6616, "EPHEMERIS_TYPE": 0, "CLASSIFICATION_TYPE": "U", "NORAD_CAT_ID": 38046, "ELEMENT_SET_NO": 999, "REV_AT_EPOCH": 77553, "BSTAR": 0.00055901112, "MEAN_MOTION_DOT": 0.0006493, "MEAN_MOTION_DDOT": 0}, "tle": {"line1": "1 38046U 12001A   25350.34913387  .00064930  00000+0  55901-3 0  9992", "line2": "2 38046  97.1754  56.8530 0001540 334.4570  25.6616 15.69108347775536"}}, "geometry": {"type": "Point", "coordinates": [-135.50992689943254, -60.617788791895094]}}, {"type": "Feature", "properties": {"norad_id": 38338, "name": "ARIRANG-3 (KOMPSAT-3)", "group": "resource", "lat": -81.38020382441609, "lon": 20.726275246876, "alt_km": 692.7742405073823, "timestamp": "2025-12-16T21:38:56.826594+00:00", "meta": {"OBJECT_NAME": "ARIRANG-3 (KOMPSAT-3)", "OBJECT_ID": "2012-025B", "EPOCH": "2025-12-16T08:54:25.136064", "MEAN_MOTION": 14.61717774, "ECCENTRICITY": 0.00051215, "INCLINATION": 98.3326, "RA_OF_ASC_NODE": 304.9879, "ARG_OF_PERICENTER": 326.468, "MEAN_ANOMALY": 33.6196, "EPHEMERIS_TYPE": 0, "CLASSIFICATION_TYPE": "U", "NORAD_CAT_ID": 38338, "ELEMENT_SET_NO": 999, "REV_AT_EPOCH": 72463, "BSTAR": 0.00011998104, "MEAN_MOTION_DOT": 5.49e-06, "MEAN_MOTION_DDOT": 0}, "tle": {"line1": "1 38338U 12025B   25350.37112426  .00000549  00000+0  11998-3 0  9994", "line2": "2 38338  98.3326 304.9879 0005121 326.4680  33.6196 14.61717774724631"}}, "geometry": {"type": "Point", "coordinates": [20.726275246876, -81.38020382441609]}}, {"type": "Feature", "properties": {"norad_id": 38709, "name": "EXACTVIEW-1 (ADS-1B)", "group": "resource", "lat": 76.28832632256646, "lon": 59.07123843162941, "alt_km": 802.5361489349689, "timestamp": "2025-12-16T21:38:56.826604+00:00", "meta": {"OBJECT_NAME": "EXACTVIEW-1 (ADS-1B)", "OBJECT_ID": "2012-039C", "EPOCH": "2025-12-16T06:06:36.138816", "MEAN_MOTION": 14.2490943, "ECCENTRICITY": 0.00104885, "INCLINATION": 98.9637, "RA_OF_ASC_NODE": 98.7184, "ARG_OF_PERICENTER": 343.9238, "MEAN_ANOMALY": 16.1606, "EPHEMERIS_TYPE": 0, "CLASSIFICATION_TYPE": "U", "NORAD_CAT_ID": 38709, "ELEMENT_SET_NO": 999, "REV_AT_EPOCH": 69665, "BSTAR": 7.4367583e-05, "MEAN_MOTION_DOT": 1.27e-06, "MEAN_MOTION_DDOT": 0}, "tle": {"line1": "1 38709U 12039C   25350.25458494  .00000127  00000+0  74368-4 0  9999", "line2": "2 38709  98.9637  98.7184 0010488 343.9238  16.1606 14.24909430696659"}}, "geometry": {"type": "Point", "coordinates": [59.07123843162941, 76.28832632256646]}}]}